K14QZ9H 17.8   0.15 K14C9  47.21936  339.12520  344.58724    3.07078  0.1469204  0.23591616   2.5939659  2 E2014-U41    45   3 2006-2014 0.20 M-v 38h MPCLINUX   0000          2014 QH359         20141014
K14QZ9N 19.0   0.15 K14C9  32.71619   12.14157  346.29904   17.18504  0.1055328  0.38563291   1.8693329  2 E2014-U41    27   2 2008-2014 0.34 M-v 38h MPCLINUX   0006          2014 QN359         20140903
K14QZ9T 18.2   0.15 K14C9  10.56854  150.27282  223.51209    1.59364  0.1391179  0.23464309   2.6033398  3 E2014-U41    42   2 2010-2014 0.25 M-v 38h MPCLINUX   0000          2014 QT359         20141012
K14Qa0F 18.0   0.15 K14C9  29.53388   38.73435  308.16876    2.27830  0.1606319  0.22495110   2.6775893  3 E2014-U41    38   2 2010-2014 0.21 M-v 38h MPCLINUX   0000          2014 QF360         20141012
K14Qa0O 17.8   0.15 K14C9  41.72049  147.09993  180.01269    3.15617  0.0933553  0.22248192   2.6973641  3 E2014-U41    27   2 2010-2014 0.21 M-v 38h MPCLINUX   0000          2014 QO360         20140919
K14Qa0Q 17.4   0.15 K14C9 351.71802   37.99862  351.02003    5.98044  0.0660076  0.22021131   2.7158741  3 E2014-U41    37   2 2005-2014 0.22 M-v 38h MPCLINUX   0000          2014 QQ360         20141014
K14Qa0R 16.6   0.15 K14C9  41.48060  156.78722  171.18143   10.05659  0.0947086  0.18780911   3.0198934  3 E2014-U41    38   3 2003-2014 0.31 M-v 38h MPCLINUX   0000          2014 QR360         20141017
K14Qa0T 16.5   0.15 K14C9 104.92946  270.85376  352.94794    8.81951  0.0586380  0.17560173   3.1582768  3 E2014-U41    33   2 2012-2014 0.34 M-v 38h MPCLINUX   0000          2014 QT360         20141014
K14Qa0Z 18.7   0.15 K14C9 345.07618  314.27620   96.08012    2.40288  0.1738925  0.26131560   2.4230320  2 E2014-U41    34   3 2003-2014 0.19 M-v 38h MPCLINUX   0000          2014 QZ360         20141017
K14Qa1F 16.4   0.15 K14C9 157.54585  216.06582    1.01313   21.43204  0.0711169  0.17639758   3.1487702  2 E2014-U41    28   2 2012-2014 0.19 M-v 38h MPCLINUX   0000          2014 QF361         20140927
K14Qa1P 17.0   0.15 K14C9 156.10150  214.87421    6.12978   12.60567  0.1177399  0.23883332   2.5728005  4 E2014-U41    20   2 2010-2014 0.37 M-v 38h MPCLINUX   0000          2014 QP361         20141001
K14Qa1R 17.0   0.15 K14C9  37.14523  164.23437  173.87390   14.86685  0.1931538  0.23587723   2.5942513  3 E2014-U41    59   2 2009-2014 0.30 M-v 38h MPCLINUX   0000          2014 QR361         20141014
K14Qa3X 19.3   0.15 K14C9  53.07338  257.14032   12.67996    2.07913  0.4994012  0.23287969   2.6164652  3 E2014-U41    35   2 2001-2014 0.29 M-v 38h MPCLINUX   0005          2014 QX363         20141002
K14Qa5Q 16.5   0.15 K14C9  65.69750  101.26004  180.33306   10.45816  0.1203377  0.18665256   3.0323553  2 E2014-U41    24   2 2013-2014 0.18 M-v 38h MPCLINUX   0000          2014 QQ365         20140911
K14Qa5T 16.6   0.15 K14C9 323.45595  101.83493  311.69912    3.65574  0.1946866  0.17477266   3.1682568  0 E2014-U41    48   5 2003-2014 0.24 M-v 38h MPCW       0400          2014 QT365         20140924
K14Qa5W 16.1   0.15 K14C9  21.98553  322.93591   21.77931   10.64536  0.1297828  0.17153216   3.2080343  3 E2014-U41    30   2 2003-2014 0.37 M-v 38h MPCLINUX   0000          2014 QW365         20140923
K14Qa6A 16.8   0.15 K14C9  53.01268  237.57843   52.50905    1.23601  0.1501131  0.18193157   3.0845892  1 E2014-U41    55   4 2007-2014 0.33 M-v 38h MPCLINUX   0400          2014 QA366         20141018
K14Qa6F 16.6   0.15 K14C9  38.20362  308.51292   25.66576   13.67148  0.2709861  0.18082551   3.0971549  3 E2014-U41    48   2 2003-2014 0.39 M-v 38h MPCLINUX   0000          2014 QF366         20141018
K14Qa7E 18.0   0.15 K14C9   7.69979  259.26200  135.25559    5.20799  0.2141924  0.23885803   2.5726231  2 E2014-U41    23   2 2010-2014 0.18 M-v 38h MPCLINUX   0000          2014 QE367         20140918
K14Qa7K 17.7   0.15 K14C9  49.80558  182.49221  146.63041    8.83880  0.2166384  0.23010218   2.6374783  3 E2014-U41    19   2 2013-2014 0.22 M-v 38h MPCLINUX   0000          2014 QK367         20140918
K14Qa7O 17.6   0.15 K14C9 328.87102  328.29644  113.87644    6.88478  0.1295112  0.25551014   2.4595970  1 E2014-U41    28   3 2004-2014 0.23 M-v 38h MPCLINUX   0000          2014 QO367         20141021
K14Qa7Q 17.3   0.15 K14C9  22.70157  269.62748  105.76421    7.19425  0.1033122  0.26342296   2.4100921  3 E2014-U41    29   2 2007-2014 0.35 M-v 38h MPCLINUX   0000          2014 QQ367         20141021
K14Qa7T 17.6   0.15 K14C9  12.52250  244.58491  144.68332    8.61940  0.2273508  0.24437706   2.5337422  2 E2014-U41    43   4 2002-2014 0.40 M-v 38h MPCLINUX   0400          2014 QT367         20141021
K14Qa9M 18.0   0.15 K14C9  58.85185  263.80230   31.13438    2.76984  0.1896901  0.26145596   2.4221648  3 E2014-U41    41   2 2002-2014 0.24 M-v 38h MPCLINUX   0000          2014 QM369         20141003
K14Qa9O 17.7   0.15 K14C9  83.11912  247.93782   29.49280    3.78471  0.1126808  0.22548316   2.6733756  4 E2014-U41    20   2 2001-2014 0.26 M-v 38h MPCLINUX   0000          2014 QO369         20140917
K14Qa9V 17.4   0.15 K14C9 298.15984  315.46949  125.80891    3.88717  0.0611625  0.22485769   2.6783308  1 E2014-U41    30   3 2006-2014 0.14 M-v 38h MPCLINUX   0000          2014 QV369         20140919
K14Qc0A 17.5   0.15 K14C9  91.81092  332.92442  309.93443    4.02255  0.0434933  0.21471489   2.7620271  4 E2014-U41    24   2 2012-2014 0.31 M-v 38h MPCW       0000          2014 QA380         20140927
K14Qc0B 18.4   0.15 K14C9  50.63954  127.09742  188.36722    6.15234  0.2165211  0.26252600   2.4155786  3 E2014-U41    51   2 2010-2014 0.42 M-v 38h MPCLINUX   0000          2014 QB380         20141014
K14Qc0K 17.9   0.15 K14C9  46.13714  120.87756  202.51146    3.42640  0.2081467  0.26595268   2.3947847  2 E2014-U41    66   3 2003-2014 0.33 M-v 38h MPCLINUX   0000          2014 QK380         20141014
K14Qc0P 16.3   0.15 K14C9 345.23532  192.65193  205.49990    5.87735  0.0649889  0.20414513   2.8565601  2 E2014-U41    55   3 2009-2014 0.41 M-v 38h MPCLINUX   0000          2014 QP380         20141012
K14Qc0T 16.5   0.15 K14C9  85.74558  280.76021  344.12196   11.75889  0.2388861  0.17849709   3.1240307  2 E2014-U41    37   3 2003-2014 0.23 M-v 38h MPCLINUX   0000          2014 QT380         20140927
K14Qc0U 18.2   0.15 K14C9  98.92823   74.43385  197.14190    6.80782  0.1329302  0.29712198   2.2242292  1 E2014-U41    45   3 2000-2014 0.23 M-v 38h MPCLINUX   0000          2014 QU380         20141014
K14Qc1K 16.9   0.15 K14C9  67.80669   97.21266  187.81453   12.66815  0.2145966  0.20932171   2.8092681  2 E2014-U41    51   2 2013-2014 0.22 M-v 38h MPCLINUX   0000          2014 QK381         20141018
K14Qc1L 17.1   0.15 K14C9  23.69433   87.11282  265.99183    3.67797  0.0894868  0.21431877   2.7654294  1 E2014-U41    52   5 2005-2014 0.25 M-v 38h MPCLINUX   0400          2014 QL381         20141012
K14Qc1R 16.8   0.15 K14C9 128.12779   48.69487  201.61105    5.98014  0.0059155  0.20436075   2.8545504  3 E2014-U41    36   2 2012-2014 0.25 M-v 38h MPCLINUX   0000          2014 QR381         20140927
K14Qc1S 18.6   0.15 K14C9  12.71354  243.46277  128.60802    1.45703  0.1970654  0.27956836   2.3163848  2 E2014-U41    61   2 2007-2014 0.24 M-v 38h MPCW       0000          2014 QS381         20141017
K14Qc1T 17.3   0.15 K14C9  49.90449  285.67990   31.11121   13.08202  0.2863018  0.22929659   2.6436522  2 E2014-U41    42   2 2010-2014 0.22 M-v 38h MPCADO     0000          2014 QT381         20141024
K14Qc1Y 17.5   0.15 K14C9 305.58830  248.31560  185.55924   10.32928  0.1322523  0.22769571   2.6560291  1 E2014-U41    36   4 2008-2014 0.33 M-v 38h MPCLINUX   0000          2014 QY381         20140916
K14Qc2K 16.9   0.15 K14C9  28.41403   50.34267  288.73569    4.65696  0.1166010  0.18768875   3.0211844  3 E2014-U41    30   2 2009-2014 0.24 M-v 38h MPCLINUX   0000          2014 QK382         20141001
K14Qc2L 18.6   0.15 K14C9  42.15845  145.51785  182.11852    4.58930  0.1927012  0.28642999   2.2792418  3 E2014-U41    40   2 2010-2014 0.20 M-v 38h MPCLINUX   0000          2014 QL382         20140919
K14Qc2Z 17.8   0.15 K14C9   6.08781  337.66008   17.01811    6.09055  0.0788287  0.22298969   2.6932678  3 E2014-U41    25   2 2010-2014 0.17 M-v 38h MPCLINUX   0000          2014 QZ382         20140918
K14Qc3F 16.1   0.15 K14C9  10.88163   19.00726  353.01851   17.35323  0.1267301  0.17187144   3.2038111  3 E2014-U41    52   2 2008-2014 0.37 M-v 38h MPCLINUX   0000          2014 QF383         20141001
K14Qc3K 17.1   0.15 K14C9  53.09976  105.75067  194.28938   12.61756  0.2727095  0.23252188   2.6191487  1 E2014-U41    55   3 2005-2014 0.37 M-v 38h MPCLINUX   0000          2014 QK383         20141014
K14Qc3X 17.8   0.15 K14C9  32.72285  132.02783  189.57714    7.30104  0.3122015  0.21510029   2.7587269  1 E2014-U41    52   3 2005-2014 0.41 M-v 38h MPCW       0000          2014 QX383         20141014
K14Qc4K 19.5   0.15 K14C9  33.31656  108.23427  229.53909    2.36304  0.2193460  0.30177147   2.2013238  3 E2014-U41    33   2 2011-2014 0.27 M-v 38h MPCLINUX   0000          2014 QK384         20140919
K14Qc4O 16.5   0.15 K14C9 337.49908   51.52722  345.45532   10.84565  0.0939123  0.16948333   3.2338365  3 E2014-U41    26   2 2011-2014 0.27 M-v 38h MPCLINUX   0000          2014 QO384         20140919
K14Qc4P 18.4   0.15 K14C9  81.74158   73.82104  194.12275    1.84329  0.2078877  0.23797585   2.5789769  4 E2014-U41    26   2 2005-2014 0.18 M-v 38h MPCLINUX   0000          2014 QP384         20140919
K14Qc4W 16.9   0.15 K14C9  99.36761   92.97565  165.76952   13.55447  0.1365584  0.19062383   2.9900922  1 E2014-U41    42   3 2007-2014 0.24 M-v 38h MPCLINUX   0000          2014 QW384         20141002
K14Qc5P 18.2   0.15 K14C9  23.91290   65.22639  294.85598    1.53952  0.2139549  0.28706813   2.2758627  2 E2014-U41    59   2 2007-2014 0.38 M-v 38h MPCLINUX   0000          2014 QP385         20141018
